NORAD_CAT_ID,OBJECT_NAME,OBJECT_TYPE,EPOCH,MEAN_MOTION,ECCENTRICITY,INCLINATION,RA_OF_ASC_NODE,ARG_OF_PERICENTER,MEAN_ANOMALY,BSTAR,MEAN_MOTION_DOT,MEAN_MOTION_DDOT,TLE_LINE0,TLE_LINE1,TLE_LINE2,SEMIMAJOR_AXIS,PERIOD,APOGEE,PERIGEE,DECAYED
49747.0,STARLINK-3247,PAYLOAD,2023-08-26 17:32:31,15.08845685,0.0001156,53.2185,345.9136,99.8566,260.2557,0.00011753,1.583e-05,0.0,0 STARLINK-3247,1 49747U 21115Z   23238.73092092  .00001583  00000-0  11753-3 0  9998,2 49747  53.2185 345.9136 0001156  99.8566 260.2557 15.08845685 96859,6917.863,95.437,540.528,538.928,0.0
49747.0,STARLINK-3247,PAYLOAD,2023-08-27 09:26:23,15.08833235,0.0001266,53.2176,342.9397,98.0455,262.0681,2.7609e-05,1.51e-06,0.0,0 STARLINK-3247,1 49747U 21115Z   23239.39332824  .00000151  00000-0  27609-4 0  9999,2 49747  53.2176 342.9397 0001266  98.0455 262.0681 15.08833235 96952,6917.901,95.438,540.642,538.89,0.0
49747.0,STARLINK-3247,PAYLOAD,2023-08-27 12:37:09,15.08835839,0.000126,53.2176,342.3451,97.5097,262.6038,6.0662e-05,6.78e-06,0.0,0 STARLINK-3247,1 49747U 21115Z   23239.52580736  .00000678  00000-0  60662-4 0  9991,2 49747  53.2176 342.3451 0001260  97.5097 262.6038 15.08835839 95860,6917.893,95.438,540.63,538.886,0.0
49747.0,STARLINK-3247,PAYLOAD,2023-08-28 15:38:42,15.0884468,0.0001245,53.2178,337.2904,91.4849,268.6285,0.0001218,1.651e-05,0.0,0 STARLINK-3247,1 49747U 21115Z   23240.65188559  .00001651  00000-0  12180-3 0  9997,2 49747  53.2178 337.2904 0001245  91.4849 268.6285 15.08844680 97146,6917.866,95.437,540.592,538.87,0.0
49747.0,STARLINK-3247,PAYLOAD,2023-08-29 15:29:29,15.08852096,0.0001231,53.2175,332.8312,84.6156,275.4976,0.0002927,4.375e-05,0.0,0 STARLINK-3247,1 49747U 21115Z   23241.64548388  .00004375  00000-0  29270-3 0  9991,2 49747  53.2175 332.8312 0001231  84.6156 275.4976 15.08852096 96183,6917.843,95.437,540.56,538.857,0.0
49747.0,STARLINK-3247,PAYLOAD,2023-08-30 08:58:44,15.08840354,0.0001316,53.2171,329.561,84.482,275.6322,1.4645e-06,-2.65e-06,0.0,0 STARLINK-3247,1 49747U 21115Z   23242.37412841 -.00000265  00000-0  14645-5 0  9993,2 49747  53.2171 329.5610 0001316  84.4820 275.6322 15.08840354 97400,6917.879,95.438,540.655,538.834,0.0
49747.0,STARLINK-3247,PAYLOAD,2023-08-30 15:20:16,15.08847786,0.0001128,53.2169,328.369,91.9216,268.1905,0.00010191,1.335e-05,0.0,0 STARLINK-3247,1 49747U 21115Z   23242.63908494  .00001335  00000-0  10191-3 0  9994,2 49747  53.2169 328.3690 0001128  91.9216 268.1905 15.08847786 96336,6917.857,95.437,540.502,538.941,0.0
49747.0,STARLINK-3247,PAYLOAD,2023-08-31 16:46:27,15.08846548,0.0001232,53.2169,323.612,83.7561,276.3571,9.2105e-05,1.179e-05,0.0,0 STARLINK-3247,1 49747U 21115Z   23243.69892482  .00001179  00000-0  92105-4 0  9992,2 49747  53.2169 323.6120 0001232  83.7561 276.3571 15.08846548 97606,6917.86,95.437,540.578,538.873,0.0
49747.0,STARLINK-3247,PAYLOAD,2023-09-01 16:37:13,15.08849154,9.72e-05,53.2176,319.1515,105.8168,254.2931,0.00015136,2.123e-05,0.0,0 STARLINK-3247,1 49747U 21115Z   23244.69252008  .00002123  00000-0  15136-3 0  9995,2 49747  53.2176 319.1515 0000972 105.8168 254.2931 15.08849154 96645,6917.852,95.437,540.39,539.045,0.0
49747.0,STARLINK-3247,PAYLOAD,2023-09-02 11:41:52,15.08837266,0.000129,53.2172,315.5841,83.6741,276.4398,8.3442e-05,1.04e-05,0.0,0 STARLINK-3247,1 49747U 21115Z   23245.48741056  .00001040  00000-0  83442-4 0  9992,2 49747  53.2172 315.5841 0001290  83.6741 276.4398 15.08837266 97877,6917.889,95.438,540.646,538.861,0.0
49747.0,STARLINK-3247,PAYLOAD,2023-09-02 16:28:01,15.08848562,9.42e-05,53.2165,314.6913,96.1632,263.9468,0.00025401,3.758e-05,0.0,0 STARLINK-3247,1 49747U 21115Z   23245.68612305  .00003758  00000-0  25401-3 0  9996,2 49747  53.2165 314.6913 0000942  96.1632 263.9468 15.08848562 97904,6917.854,95.437,540.371,539.068,0.0
49747.0,STARLINK-3247,PAYLOAD,2023-09-02 21:14:10,15.08838419,3.67e-05,53.2181,313.8006,185.9325,174.1663,5.6615e-05,6.14e-06,0.0,0 STARLINK-3247,1 49747U 21115Z   23245.88484308  .00000614  00000-0  56615-4 0  9998,2 49747  53.2181 313.8006 0000367 185.9325 174.1663 15.08838419 96823,6917.885,95.438,540.004,539.496,0.0
49747.0,STARLINK-3247,PAYLOAD,2023-09-03 08:21:52,15.08847473,0.0001934,53.2171,311.7169,126.0656,234.0515,-3.771e-06,-3.48e-06,0.0,0 STARLINK-3247,1 49747U 21115Z   23246.34852147 -.00000348  00000-0 -37710-5 0  9992,2 49747  53.2171 311.7169 0001934 126.0656 234.0515 15.08847473 96892,6917.858,95.437,541.06,538.385,0.0
49747.0,STARLINK-3247,PAYLOAD,2023-09-03 16:18:47,15.08858977,0.0001315,53.2177,310.2275,92.2724,267.8419,0.00014425,2.01e-05,0.0,0 STARLINK-3247,1 49747U 21115Z   23246.67971461  .00002010  00000-0  14425-3 0  9991,2 49747  53.2177 310.2275 0001315  92.2724 267.8419 15.08858977 98051,6917.822,95.436,540.597,538.778,0.0
49747.0,STARLINK-3247,PAYLOAD,2023-09-03 21:04:58,15.08821756,7.23e-05,53.2169,309.3399,117.4395,242.667,-0.00023121,-3.963e-05,0.0,0 STARLINK-3247,1 49747U 21115Z   23246.87845200 -.00003963  00000-0 -23121-3 0  9997,2 49747  53.2169 309.3399 0000723 117.4395 242.6670 15.08821756 98082,6917.936,95.439,540.301,539.301,0.0
49747.0,STARLINK-3247,PAYLOAD,2023-09-04 12:58:49,15.08827724,7.56e-05,53.2172,306.3643,111.1478,248.9595,-0.0002116,-3.652e-05,0.0,0 STARLINK-3247,1 49747U 21115Z   23247.54085416 -.00003652  00000-0 -21160-3 0  9993,2 49747  53.2172 306.3643 0000756 111.1478 248.9595 15.08827724 97078,6917.918,95.438,540.306,539.26,0.0
49747.0,STARLINK-3247,PAYLOAD,2023-09-04 14:34:13,15.08830316,0.0001312,53.2169,306.0666,90.3258,269.7884,-0.00014665,-2.62e-05,0.0,0 STARLINK-3247,1 49747U 21115Z   23247.60709561 -.00002620  00000-0 -14665-3 0  9990,2 49747  53.2169 306.0666 0001312  90.3258 269.7884 15.08830316 98196,6917.91,95.438,540.683,538.867,0.0
49747.0,STARLINK-3247,PAYLOAD,2023-09-05 12:49:37,15.08839612,0.0001302,53.2159,301.9033,98.7156,261.3983,0.0002367,3.481e-05,0.0,0 STARLINK-3247,1 49747U 21115Z   23248.53445767  .00003481  00000-0  23670-3 0  9998,2 49747  53.2159 301.9033 0001302  98.7156 261.3983 15.08839612 97224,6917.882,95.438,540.647,538.846,0.0
49747.0,STARLINK-3247,PAYLOAD,2023-09-06 15:51:10,15.08854172,0.0001198,53.2148,296.8473,95.3981,264.7148,0.00044622,6.824e-05,0.0,0 STARLINK-3247,1 49747U 21115Z   23249.66053370  .00006824  00000-0  44622-3 0  9992,2 49747  53.2148 296.8473 0001198  95.3981 264.7148 15.08854172 98504,6917.837,95.437,540.531,538.873,0.0
49747.0,STARLINK-3247,PAYLOAD,2023-09-06 20:37:19,15.08852542,0.0001263,53.215,295.954,88.6206,271.4931,0.00040145,6.109e-05,0.0,0 STARLINK-3247,1 49747U 21115Z   23249.85925579  .00006109  00000-0  40145-3 0  9994,2 49747  53.2150 295.9540 0001263  88.6206 271.4931 15.08852542 97424,6917.842,95.437,540.581,538.833,0.0
49747.0,STARLINK-3247,PAYLOAD,2023-09-07 07:45:01,15.08837708,0.000133,53.2146,293.874,83.0441,277.0702,6.9564e-06,-1.77e-06,0.0,0 STARLINK-3247,1 49747U 21115Z   23250.32293791 -.00000177  00000-0  69564-5 0  9990,2 49747  53.2146 293.8740 0001330  83.0441 277.0702 15.08837708 98609,6917.887,95.438,540.672,538.832,0.0
49747.0,STARLINK-3247,PAYLOAD,2023-09-07 12:31:11,15.08841197,0.0001306,53.2152,292.9777,114.53,245.5828,2.7592e-05,1.51e-06,0.0,0 STARLINK-3247,1 49747U 21115Z   23250.52165772  .00000151  00000-0  27592-4 0  9994,2 49747  53.2152 292.9777 0001306 114.5300 245.5828 15.08841197 97529,6917.877,95.437,540.645,538.838,0.0
49747.0,STARLINK-3247,PAYLOAD,2023-09-07 14:06:34,15.08843627,0.0001394,53.2164,292.6829,97.1624,262.9527,6.7102e-05,7.8e-06,0.0,0 STARLINK-3247,1 49747U 21115Z   23250.58789763  .00000780  00000-0  67102-4 0  9991,2 49747  53.2164 292.6829 0001394  97.1624 262.9527 15.08843627 97539,6917.869,95.437,540.699,538.77,0.0
49747.0,STARLINK-3247,PAYLOAD,2023-09-08 09:11:12,15.08839181,0.0001189,53.2153,289.117,86.1203,273.9925,0.0002486,3.671e-05,0.0,0 STARLINK-3247,1 49747U 21115Z   23251.38277817  .00003671  00000-0  24860-3 0  9997,2 49747  53.2153 289.1170 0001189  86.1203 273.9925 15.08839181 98760,6917.883,95.438,540.57,538.925,0.0
49747.0,STARLINK-3247,PAYLOAD,2023-09-08 12:21:58,15.08840767,0.0001255,53.2153,288.5213,93.4286,266.685,0.00025967,3.847e-05,0.0,0 STARLINK-3247,1 49747U 21115Z   23251.51525748  .00003847  00000-0  25967-3 0  9995,2 49747  53.2153 288.5213 0001255  93.4286 266.6850 15.08840767 97674,6917.878,95.438,540.611,538.875,0.0
49747.0,STARLINK-3247,PAYLOAD,2023-09-08 13:57:21,15.08843379,0.0001316,53.2154,288.2241,90.3904,269.7238,0.00029941,4.481e-05,0.0,0 STARLINK-3247,1 49747U 21115Z   23251.58149646  .00004481  00000-0  29941-3 0  9992,2 49747  53.2154 288.2241 0001316  90.3904 269.7238 15.08843379 97681,6917.87,95.437,540.645,538.825,0.0
49747.0,STARLINK-3247,PAYLOAD,2023-09-09 02:40:26,15.08836406,0.000151,53.2173,285.8433,87.9382,272.1783,0.00013021,1.785e-05,0.0,0 STARLINK-3247,1 49747U 21115Z   23252.11142197  .00001785  00000-0  13021-3 0  9992,2 49747  53.2173 285.8433 0001510  87.9382 272.1783 15.08836406 98874,6917.891,95.438,540.801,538.712,0.0
49747.0,STARLINK-3247,PAYLOAD,2023-09-09 09:01:59,15.08840452,0.0001418,53.2169,284.6559,85.1809,274.9345,6.391e-05,7.29e-06,0.0,0 STARLINK-3247,1 49747U 21115Z   23252.37638009  .00000729  00000-0  63910-4 0  9992,2 49747  53.2169 284.6559 0001418  85.1809 274.9345 15.08840452 97808,6917.879,95.438,540.725,538.763,0.0
49747.0,STARLINK-3247,PAYLOAD,2023-09-10 07:17:22,15.08842893,0.0001405,53.2164,280.4934,100.4943,259.6208,8.6855e-05,1.095e-05,0.0,0 STARLINK-3247,1 49747U 21115Z   23253.30373804  .00001095  00000-0  86855-4 0  9995,2 49747  53.2164 280.4934 0001405 100.4943 259.6208 15.08842893 99058,6917.872,95.437,540.709,538.765,0.0
49747.0,STARLINK-3247,PAYLOAD,2023-09-10 12:03:32,15.08843139,0.0001497,53.2165,279.6013,110.9199,249.1953,0.00020644,2.999e-05,0.0,0 STARLINK-3247,1 49747U 21115Z   23253.50245494  .00002999  00000-0  20644-3 0  9997,2 49747  53.2165 279.6013 0001497 110.9199 249.1953 15.08843139 97971,6917.871,95.437,540.771,538.7,0.0
